{
  "type": "FeatureCollection",
  "features": [
    {
      "type": "Feature",
      "properties": {
        "norad_id": 34964,
        "name": "COSMOS 2251 DEB",
        "group": "cosmos-2251-debris",
        "lat": 0.2705557639616665,
        "lon": -37.18568006218883,
        "alt_km": 1048.2589000968483,
        "timestamp": "2025-12-27T03:58:44.542370+00:00",
        "meta_object_name": "COSMOS 2251 DEB",
        "meta_object_id": "1993-036AET",
        "meta_epoch": "2025-12-18T07:25:04.519776",
        "meta_mean_motion": 14.00628567,
        "meta_eccentricity": 0.02123167,
        "meta_inclination": 73.9712,
        "meta_ra_of_asc_node": 338.1457,
        "meta_arg_of_pericenter": 195.4091,
        "meta_mean_anomaly": 164.0515,
        "meta_ephemeris_type": 0,
        "meta_classification_type": "U",
        "meta_norad_cat_id": 34964,
        "meta_element_set_no": 999,
        "meta_rev_at_epoch": 84556,
        "meta_bstar": 0.00089791859,
        "meta_mean_motion_dot": 1.6e-05,
        "meta_mean_motion_ddot": 0,
        "tle_line1": "1 34964U 93036AET 25352.30908009  .00001600  00000+0  89792-3 0  9997",
        "tle_line2": "2 34964  73.9712 338.1457 0212316 195.4091 164.0515 14.00628567845561"
      },
      "geometry": {
        "type": "Point",
        "coordinates": [
          -37.18568006218883,
          0.2705557639616665
        ]
      }
    },
    {
      "type": "Feature",
      "properties": {
        "norad_id": 34965,
        "name": "COSMOS 2251 DEB",
        "group": "cosmos-2251-debris",
        "lat": 43.25198735037644,
        "lon": 117.06641952421097,
        "alt_km": 744.5342988532084,
        "timestamp": "2025-12-27T03:58:44.542380+00:00",
        "meta_object_name": "COSMOS 2251 DEB",
        "meta_object_id": "1993-036AEU",
        "meta_epoch": "2025-12-26T16:10:04.788192",
        "meta_mean_motion": 14.48742435,
        "meta_eccentricity": 0.0026354,
        "meta_inclination": 74.0519,
        "meta_ra_of_asc_node": 102.3817,
        "meta_arg_of_pericenter": 227.8431,
        "meta_mean_anomaly": 132.049,
        "meta_ephemeris_type": 0,
        "meta_classification_type": "U",
        "meta_norad_cat_id": 34965,
        "meta_element_set_no": 999,
        "meta_rev_at_epoch": 87315,
        "meta_bstar": 0.00037373,
        "meta_mean_motion_dot": 1.388e-05,
        "meta_mean_motion_ddot": 0,
        "tle_line1": "1 34965U 93036AEU 25360.67366653  .00001388  00000+0  37373-3 0  9991",
        "tle_line2": "2 34965  74.0519 102.3817 0026354 227.8431 132.0490 14.48742435873159"
      },
      "geometry": {
        "type": "Point",
        "coordinates": [
          117.06641952421097,
          43.25198735037644
        ]
      }
    },
    {
      "type": "Feature",
      "properties": {
        "norad_id": 34967,
        "name": "COSMOS 2251 DEB",
        "group": "cosmos-2251-debris",
        "lat": 73.71700145183839,
        "lon": -53.69225075388874,
        "alt_km": 730.5707524560321,
        "timestamp": "2025-12-27T03:58:44.542389+00:00",
        "meta_object_name": "COSMOS 2251 DEB",
        "meta_object_id": "1993-036AEW",
        "meta_epoch": "2025-12-24T22:23:05.722368",
        "meta_mean_motion": 14.44316705,
        "meta_eccentricity": 0.0038667,
        "meta_inclination": 73.9924,
        "meta_ra_of_asc_node": 231.1127,
        "meta_arg_of_pericenter": 14.6551,
        "meta_mean_anomaly": 345.5717,
        "meta_ephemeris_type": 0,
        "meta_classification_type": "U",
        "meta_norad_cat_id": 34967,
        "meta_element_set_no": 999,
        "meta_rev_at_epoch": 65133,
        "meta_bstar": 0.00061268,
        "meta_mean_motion_dot": 2.1e-05,
        "meta_mean_motion_ddot": 0,
        "tle_line1": "1 34967U 93036AEW 25358.93270512  .00002100  00000+0  61268-3 0  9990",
        "tle_line2": "2 34967  73.9924 231.1127 0038667  14.6551 345.5717 14.44316705651339"
      },
      "geometry": {
        "type": "Point",
        "coordinates": [
          -53.69225075388874,
          73.71700145183839
        ]
      }
    },
    {
      "type": "Feature",
      "properties": {
        "norad_id": 34968,
        "name": "COSMOS 2251 DEB",
        "group": "cosmos-2251-debris",
        "lat": 6.76315877516265,
        "lon": -138.4838095197526,
        "alt_km": 643.5867717425963,
        "timestamp": "2025-12-27T03:58:44.542399+00:00",
        "meta_object_name": "COSMOS 2251 DEB",
        "meta_object_id": "1993-036AEX",
        "meta_epoch": "2025-12-24T23:18:09.743904",
        "meta_mean_motion": 14.59425432,
        "meta_eccentricity": 0.00872503,
        "meta_inclination": 74.0378,
        "meta_ra_of_asc_node": 223.7537,
        "meta_arg_of_pericenter": 341.0741,
        "meta_mean_anomaly": 18.7186,
        "meta_ephemeris_type": 0,
        "meta_classification_type": "U",
        "meta_norad_cat_id": 34968,
        "meta_element_set_no": 999,
        "meta_rev_at_epoch": 88656,
        "meta_bstar": 0.00013531421,
        "meta_mean_motion_dot": 6.43e-06,
        "meta_mean_motion_ddot": 0,
        "tle_line1": "1 34968U 93036AEX 25358.97094611  .00000643  00000+0  13531-3 0  9999",
        "tle_line2": "2 34968  74.0378 223.7537 0087250 341.0741  18.7186 14.59425432886565"
      },
      "geometry": {
        "type": "Point",
        "coordinates": [
          -138.4838095197526,
          6.76315877516265
        ]
      }
    },
    {
      "type": "Feature",
      "properties": {
        "norad_id": 34969,
        "name": "COSMOS 2251 DEB",
        "group": "cosmos-2251-debris",
        "lat": 48.660158149714086,
        "lon": 157.76407257195567,
        "alt_km": 727.1209779801029,
        "timestamp": "2025-12-27T03:58:44.542408+00:00",
        "meta_object_name": "COSMOS 2251 DEB",
        "meta_object_id": "1993-036AEY",
        "meta_epoch": "2025-12-26T17:19:34.271616",
        "meta_mean_motion": 14.3227655,
        "meta_eccentricity": 0.007302,
        "meta_inclination": 74.0139,
        "meta_ra_of_asc_node": 357.5919,
        "meta_arg_of_pericenter": 127.2117,
        "meta_mean_anomaly": 233.5728,
        "meta_ephemeris_type": 0,
        "meta_classification_type": "U",
        "meta_norad_cat_id": 34969,
        "meta_element_set_no": 999,
        "meta_rev_at_epoch": 65337,
        "meta_bstar": 0.00027741,
        "meta_mean_motion_dot": 7.45e-06,
        "meta_mean_motion_ddot": 0,
        "tle_line1": "1 34969U 93036AEY 25360.72192444  .00000745  00000+0  27741-3 0  9990",
        "tle_line2": "2 34969  74.0139 357.5919 0073020 127.2117 233.5728 14.32276550653378"
      },
      "geometry": {
        "type": "Point",
        "coordinates": [
          157.76407257195567,
          48.660158149714086
        ]
      }
    },
    {
      "type": "Feature",
      "properties": {
        "norad_id": 34971,
        "name": "COSMOS 2251 DEB",
        "group": "cosmos-2251-debris",
        "lat": -51.03369427040878,
        "lon": 98.38672507420203,
        "alt_km": 733.8320050910297,
        "timestamp": "2025-12-27T03:58:44.542417+00:00",
        "meta_object_name": "COSMOS 2251 DEB",
        "meta_object_id": "1993-036AFA",
        "meta_epoch": "2025-12-26T11:13:29.439840",
        "meta_mean_motion": 14.55653879,
        "meta_eccentricity": 0.0069184,
        "meta_inclination": 73.9782,
        "meta_ra_of_asc_node": 258.9038,
        "meta_arg_of_pericenter": 120.9531,
        "meta_mean_anomaly": 55.4903,
        "meta_ephemeris_type": 0,
        "meta_classification_type": "U",
        "meta_norad_cat_id": 34971,
        "meta_element_set_no": 999,
        "meta_rev_at_epoch": 66372,
        "meta_bstar": 0.00016507,
        "meta_mean_motion_dot": 7.14e-06,
        "meta_mean_motion_ddot": 0,
        "tle_line1": "1 34971U 93036AFA 25360.46770185  .00000714  00000+0  16507-3 0  9992",
        "tle_line2": "2 34971  73.9782 258.9038 0069184 120.9531  55.4903 14.55653879663729"
      },
      "geometry": {
        "type": "Point",
        "coordinates": [
          98.38672507420203,
          -51.03369427040878
        ]
      }
    },
    {
      "type": "Feature",
      "properties": {
        "norad_id": 34972,
        "name": "COSMOS 2251 DEB",
        "group": "cosmos-2251-debris",
        "lat": -53.26776492978432,
        "lon": -0.9614282624205458,
        "alt_km": 671.0277961567235,
        "timestamp": "2025-12-27T03:58:44.542446+00:00",
        "meta_object_name": "COSMOS 2251 DEB",
        "meta_object_id": "1993-036AFB",
        "meta_epoch": "2025-12-26T12:37:34.370400",
        "meta_mean_motion": 14.7310501,
        "meta_eccentricity": 0.0032419,
        "meta_inclination": 73.9877,
        "meta_ra_of_asc_node": 22.9204,
        "meta_arg_of_pericenter": 179.2872,
        "meta_mean_anomaly": 332.9317,
        "meta_ephemeris_type": 0,
        "meta_classification_type": "U",
        "meta_norad_cat_id": 34972,
        "meta_element_set_no": 999,
        "meta_rev_at_epoch": 87853,
        "meta_bstar": 0.0013355,
        "meta_mean_motion_dot": 8.649e-05,
        "meta_mean_motion_ddot": 0,
        "tle_line1": "1 34972U 93036AFB 25360.52609225  .00008649  00000+0  13355-2 0  9998",
        "tle_line2": "2 34972  73.9877  22.9204 0032419 179.2872 332.9317 14.73105010878533"
      },
      "geometry": {
        "type": "Point",
        "coordinates": [
          -0.9614282624205458,
          -53.26776492978432
        ]
      }
    }
  ]
}